{
    "links": {
        "self": "http://www.neowsapp.com/rest/v1/neo/3841901?api_key=iIulBulltgU6a56xZRHN4H3l9WmuAYTsLGpBGhQ2"
    },
    "id": "3841901",
    "neo_reference_id": "3841901",
    "name": "(2019 JE7)",
    "designation": "2019 JE7",
    "nasa_jpl_url": "http://ssd.jpl.nasa.gov/sbdb.cgi?sstr=3841901",
    "absolute_magnitude_h": 24.1,
    "estimated_diameter": {
        "kilometers": {
            "estimated_diameter_min": 0.040230458,
            "estimated_diameter_max": 0.0899580388
        },
        "meters": {
            "estimated_diameter_min": 40.2304579834,
            "estimated_diameter_max": 89.9580388169
        },
        "miles": {
            "estimated_diameter_min": 0.0249980399,
            "estimated_diameter_max": 0.0558973165
        },
        "feet": {
            "estimated_diameter_min": 131.9896957704,
            "estimated_diameter_max": 295.1379320721
        }
    },
    "is_potentially_hazardous_asteroid": false,
    "close_approach_data": [
        {
            "close_approach_date": "2019-05-08",
            "close_approach_date_full": "2019-May-08 15:07",
            "epoch_date_close_approach": 1557328020000,
            "relative_velocity": {
                "kilometers_per_second": "3.9716898046",
                "kilometers_per_hour": "14298.0832966012",
                "miles_per_hour": "8884.2729239353"
            },
            "miss_distance": {
                "astronomical": "0.2170198396",
                "lunar": "84.4207176044",
                "kilometers": "32465705.751901652",
                "miles": "20173254.1080087176"
            },
            "orbiting_body": "Earth"
        }
    ],
    "orbital_data": {
        "orbit_id": "2",
        "orbit_determination_date": "2019-05-29 06:26:31",
        "first_observation_date": "2019-05-11",
        "last_observation_date": "2019-05-29",
        "data_arc_in_days": 18,
        "observations_used": 12,
        "orbit_uncertainty": "8",
        "minimum_orbit_intersection": ".216903",
        "jupiter_tisserand_invariant": "3.234",
        "epoch_osculation": "2458615.5",
        "eccentricity": ".5226041131477049",
        "semi_major_axis": "2.544860427626507",
        "inclination": "4.019287473285642",
        "ascending_node_longitude": "106.2821578633434",
        "orbital_period": "1482.840296848111",
        "perihelion_distance": "1.214905900762067",
        "perihelion_argument": "117.4154287937239",
        "aphelion_distance": "3.874814954490946",
        "perihelion_time": "2458607.778220133557",
        "mean_anomaly": "1.874673056719757",
        "mean_motion": ".2427773245474966",
        "equinox": "J2000",
        "orbit_class": {
            "orbit_class_type": "AMO",
            "orbit_class_description": "Near-Earth asteroid orbits similar to that of 1221 Amor",
            "orbit_class_range": "1.017 AU < q (perihelion) < 1.3 AU"
        }
    },
    "is_sentry_object": false
}